CTC1_L_00622001-01
1 10000U 24760CV  26075.70039352  .00000000  00000+0  00000-0 0  9998
2 10000  70.0000   0.0000 0000000   0.0000   0.0000  4.55247085    11
CTC1_L_00622001-02
1 10001U 25015CB  26075.70039352  .00000000  00000+0  00000-0 0  9993
2 10001  70.0000   0.0000 0000000   0.0000  36.0000  4.55247085    11
CTC1_L_00622001-03
1 10002U 24600AI  26075.70039352  .00000000  00000+0  00000-0 0  9993
2 10002  70.0000   0.0000 0000000   0.0000  72.0000  4.55247085    12
CTC1_L_00622001-04
1 10003U 23894ZQ  26075.70039352  .00000000  00000+0  00000-0 0  9998
2 10003  70.0000   0.0000 0000000   0.0000 108.0000  4.55247085    13
CTC1_L_00622001-05
1 10004U 26438VE  26075.70039352  .00000000  00000+0  00000-0 0  9996
2 10004  70.0000   0.0000 0000000   0.0000 144.0000  4.55247085    14
CTC1_L_00622001-06
1 10005U 24410NA  26075.70039352  .00000000  00000+0  00000-0 0  9995
2 10005  70.0000   0.0000 0000000   0.0000 180.0000  4.55247085    15
CTC1_L_00622001-07
1 10006U 22516FR  26075.70039352  .00000000  00000+0  00000-0 0  9991
2 10006  70.0000   0.0000 0000000   0.0000 216.0000  4.55247085    16
CTC1_L_00622001-08
1 10007U 24314IA  26075.70039352  .00000000  00000+0  00000-0 0  9990
2 10007  70.0000   0.0000 0000000   0.0000 252.0000  4.55247085    17
CTC1_L_00622001-09
1 10008U 22128HV  26075.70039352  .00000000  00000+0  00000-0 0  9992
2 10008  70.0000   0.0000 0000000   0.0000 288.0000  4.55247085    17
CTC1_L_00622001-10
1 10009U 24643AL  26075.70039352  .00000000  00000+0  00000-0 0  9997
2 10009  70.0000   0.0000 0000000   0.0000 324.0000  4.55247085    19
CTC1_L_00622002-01
1 10010U 23004WO  26075.70039352  .00000000  00000+0  00000-0 0  9999
2 10010  70.0000  30.0000 0000000   0.0000  12.0000  4.55247085    18
CTC1_L_00622002-02
1 10011U 25891OI  26075.70039352  .00000000  00000+0  00000-0 0  9996
2 10011  70.0000  30.0000 0000000   0.0000  48.0000  4.55247085    18
CTC1_L_00622002-03
1 10012U 23109SV  26075.70039352  .00000000  00000+0  00000-0 0  9997
2 10012  70.0000  30.0000 0000000   0.0000  84.0000  4.55247085    19
CTC1_L_00622002-04
1 10013U 23940YB  26075.70039352  .00000000  00000+0  00000-0 0  9991
2 10013  70.0000  30.0000 0000000   0.0000 120.0000  4.55247085    11
CTC1_L_00622002-05
1 10014U 24446CC  26075.70039352  .00000000  00000+0  00000-0 0  9994
2 10014  70.0000  30.0000 0000000   0.0000 156.0000  4.55247085    11
CTC1_L_00622002-06
1 10015U 25897MO  26075.70039352  .00000000  00000+0  00000-0 0  9996
2 10015  70.0000  30.0000 0000000   0.0000 192.0000  4.55247085    12
CTC1_L_00622002-07
1 10016U 26901ZY  26075.70039352  .00000000  00000+0  00000-0 0  9994
2 10016  70.0000  30.0000 0000000   0.0000 228.0000  4.55247085    13
CTC1_L_00622002-08
1 10017U 23956ZR  26075.70039352  .00000000  00000+0  00000-0 0  9992
2 10017  70.0000  30.0000 0000000   0.0000 264.0000  4.55247085    14
CTC1_L_00622002-09
1 10018U 25581WZ  26075.70039352  .00000000  00000+0  00000-0 0  9999
2 10018  70.0000  30.0000 0000000   0.0000 300.0000  4.55247085    16
CTC1_L_00622002-10
1 10019U 24320DZ  26075.70039352  .00000000  00000+0  00000-0 0  9990
2 10019  70.0000  30.0000 0000000   0.0000 336.0000  4.55247085    16
CTC1_L_00622003-01
1 10020U 24548PZ  26075.70039352  .00000000  00000+0  00000-0 0  9994
2 10020  70.0000  60.0000 0000000   0.0000  24.0000  4.55247085    15
CTC1_L_00622003-02
1 10021U 26357CD  26075.70039352  .00000000  00000+0  00000-0 0  9995
2 10021  70.0000  60.0000 0000000   0.0000  60.0000  4.55247085    16
CTC1_L_00622003-03
1 10022U 23564AM  26075.70039352  .00000000  00000+0  00000-0 0  9993
2 10022  70.0000  60.0000 0000000   0.0000  96.0000  4.55247085    16
CTC1_L_00622003-04
1 10023U 24952OP  26075.70039352  .00000000  00000+0  00000-0 0  9996
2 10023  70.0000  60.0000 0000000   0.0000 132.0000  4.55247085    18
CTC1_L_00622003-05
1 10024U 26230GE  26075.70039352  .00000000  00000+0  00000-0 0  9998
2 10024  70.0000  60.0000 0000000   0.0000 168.0000  4.55247085    18
CTC1_L_00622003-06
1 10025U 23568UI  26075.70039352  .00000000  00000+0  00000-0 0  9990
2 10025  70.0000  60.0000 0000000   0.0000 204.0000  4.55247085    10
CTC1_L_00622003-07
1 10026U 24356ZX  26075.70039352  .00000000  00000+0  00000-0 0  9997
2 10026  70.0000  60.0000 0000000   0.0000 240.0000  4.55247085    11
CTC1_L_00622003-08
1 10027U 24746CF  26075.70039352  .00000000  00000+0  00000-0 0  9991
2 10027  70.0000  60.0000 0000000   0.0000 276.0000  4.55247085    11
CTC1_L_00622003-09
1 10028U 24018IZ  26075.70039352  .00000000  00000+0  00000-0 0  9994
2 10028  70.0000  60.0000 0000000   0.0000 312.0000  4.55247085    13
CTC1_L_00622003-10
1 10029U 22716XY  26075.70039352  .00000000  00000+0  00000-0 0  9998
2 10029  70.0000  60.0000 0000000   0.0000 348.0000  4.55247085    13
CTC1_L_00622004-01
1 10030U 22934PD  26075.70039352  .00000000  00000+0  00000-0 0  9992
2 10030  70.0000  90.0000 0000000   0.0000  36.0000  4.55247085    12
CTC1_L_00622004-02
1 10031U 22010KE  26075.70039352  .00000000  00000+0  00000-0 0  9998
2 10031  70.0000  90.0000 0000000   0.0000  72.0000  4.55247085    13
CTC1_L_00622004-03
1 10032U 23045MV  26075.70039352  .00000000  00000+0  00000-0 0  9998
2 10032  70.0000  90.0000 0000000   0.0000 108.0000  4.55247085    14
CTC1_L_00622004-04
1 10033U 25388JO  26075.70039352  .00000000  00000+0  00000-0 0  9991
2 10033  70.0000  90.0000 0000000   0.0000 144.0000  4.55247085    15
CTC1_L_00622004-05
1 10034U 24799JE  26075.70039352  .00000000  00000+0  00000-0 0  9997
2 10034  70.0000  90.0000 0000000   0.0000 180.0000  4.55247085    16
CTC1_L_00622004-06
1 10035U 26514PO  26075.70039352  .00000000  00000+0  00000-0 0  9995
2 10035  70.0000  90.0000 0000000   0.0000 216.0000  4.55247085    17
CTC1_L_00622004-07
1 10036U 23709UZ  26075.70039352  .00000000  00000+0  00000-0 0  9999
2 10036  70.0000  90.0000 0000000   0.0000 252.0000  4.55247085    18
CTC1_L_00622004-08
1 10037U 24289YH  26075.70039352  .00000000  00000+0  00000-0 0  9994
2 10037  70.0000  90.0000 0000000   0.0000 288.0000  4.55247085    18
CTC1_L_00622004-09
1 10038U 24207KY  26075.70039352  .00000000  00000+0  00000-0 0  9995
2 10038  70.0000  90.0000 0000000   0.0000 324.0000  4.55247085    10
CTC1_L_00622004-10
1 10039U 23253IZ  26075.70039352  .00000000  00000+0  00000-0 0  9996
2 10039  70.0000  90.0000 0000000   0.0000   0.0000  4.55247085    12
CTC1_L_00622005-01
1 10040U 24054UV  26075.70039352  .00000000  00000+0  00000-0 0  9998
2 10040  70.0000 120.0000 0000000   0.0000  48.0000  4.55247085    10
CTC1_L_00622005-02
1 10041U 22589QF  26075.70039352  .00000000  00000+0  00000-0 0  9990
2 10041  70.0000 120.0000 0000000   0.0000  84.0000  4.55247085    11
CTC1_L_00622005-03
1 10042U 22886GM  26075.70039352  .00000000  00000+0  00000-0 0  9991
2 10042  70.0000 120.0000 0000000   0.0000 120.0000  4.55247085    13
CTC1_L_00622005-04
1 10043U 25943PV  26075.70039352  .00000000  00000+0  00000-0 0  9999
2 10043  70.0000 120.0000 0000000   0.0000 156.0000  4.55247085    13
CTC1_L_00622005-05
1 10044U 26233OH  26075.70039352  .00000000  00000+0  00000-0 0  9993
2 10044  70.0000 120.0000 0000000   0.0000 192.0000  4.55247085    14
CTC1_L_00622005-06
1 10045U 26008JV  26075.70039352  .00000000  00000+0  00000-0 0  9994
2 10045  70.0000 120.0000 0000000   0.0000 228.0000  4.55247085    15
CTC1_L_00622005-07
1 10046U 25483CM  26075.70039352  .00000000  00000+0  00000-0 0  9991
2 10046  70.0000 120.0000 0000000   0.0000 264.0000  4.55247085    16
CTC1_L_00622005-08
1 10047U 24658T   26075.70039352  .00000000  00000+0  00000-0 0  9995
2 10047  70.0000 120.0000 0000000   0.0000 300.0000  4.55247085    18
CTC1_L_00622005-09
1 10048U 26653L   26075.70039352  .00000000  00000+0  00000-0 0  9993
2 10048  70.0000 120.0000 0000000   0.0000 336.0000  4.55247085    18
CTC1_L_00622005-10
1 10049U 23322UC  26075.70039352  .00000000  00000+0  00000-0 0  9994
2 10049  70.0000 120.0000 0000000   0.0000  12.0000  4.55247085    10
CTC1_L_00622006-01
1 10050U 22354RS  26075.70039352  .00000000  00000+0  00000-0 0  9990
2 10050  70.0000 150.0000 0000000   0.0000  60.0000  4.55247085    18
CTC1_L_00622006-02
1 10051U 22886WA  26075.70039352  .00000000  00000+0  00000-0 0  9991
2 10051  70.0000 150.0000 0000000   0.0000  96.0000  4.55247085    18
CTC1_L_00622006-03
1 10052U 23022QM  26075.70039352  .00000000  00000+0  00000-0 0  9995
2 10052  70.0000 150.0000 0000000   0.0000 132.0000  4.55247085    10
CTC1_L_00622006-04
1 10053U 24859PL  26075.70039352  .00000000  00000+0  00000-0 0  9995
2 10053  70.0000 150.0000 0000000   0.0000 168.0000  4.55247085    10
CTC1_L_00622006-05
1 10054U 24156XT  26075.70039352  .00000000  00000+0  00000-0 0  9996
2 10054  70.0000 150.0000 0000000   0.0000 204.0000  4.55247085    12
CTC1_L_00622006-06
1 10055U 22542US  26075.70039352  .00000000  00000+0  00000-0 0  9994
2 10055  70.0000 150.0000 0000000   0.0000 240.0000  4.55247085    13
CTC1_L_00622006-07
1 10056U 24926UZ  26075.70039352  .00000000  00000+0  00000-0 0  9993
2 10056  70.0000 150.0000 0000000   0.0000 276.0000  4.55247085    13
CTC1_L_00622006-08
1 10057U 25126VE  26075.70039352  .00000000  00000+0  00000-0 0  9997
2 10057  70.0000 150.0000 0000000   0.0000 312.0000  4.55247085    15
CTC1_L_00622006-09
1 10058U 26239CU  26075.70039352  .00000000  00000+0  00000-0 0  9994
2 10058  70.0000 150.0000 0000000   0.0000 348.0000  4.55247085    15
CTC1_L_00622006-10
1 10059U 24783YA  26075.70039352  .00000000  00000+0  00000-0 0  9997
2 10059  70.0000 150.0000 0000000   0.0000  24.0000  4.55247085    17
CTC1_L_00622007-01
1 10060U 26709KV  26075.70039352  .00000000  00000+0  00000-0 0  9999
2 10060  70.0000 180.0000 0000000   0.0000  72.0000  4.55247085    15
CTC1_L_00622007-02
1 10061U 24251TQ  26075.70039352  .00000000  00000+0  00000-0 0  9990
2 10061  70.0000 180.0000 0000000   0.0000 108.0000  4.55247085    16
